{
    "links": {
        "self": "http://www.neowsapp.com/rest/v1/neo/3092415?api_key=iIulBulltgU6a56xZRHN4H3l9WmuAYTsLGpBGhQ2"
    },
    "id": "3092415",
    "neo_reference_id": "3092415",
    "name": "(2001 UE18)",
    "designation": "2001 UE18",
    "nasa_jpl_url": "http://ssd.jpl.nasa.gov/sbdb.cgi?sstr=3092415",
    "absolute_magnitude_h": 22.5,
    "estimated_diameter": {
        "kilometers": {
            "estimated_diameter_min": 0.0840533402,
            "estimated_diameter_max": 0.1879489824
        },
        "meters": {
            "estimated_diameter_min": 84.0533402073,
            "estimated_diameter_max": 187.9489824394
        },
        "miles": {
            "estimated_diameter_min": 0.0522283081,
            "estimated_diameter_max": 0.1167860472
        },
        "feet": {
            "estimated_diameter_min": 275.7655606856,
            "estimated_diameter_max": 616.6305395464
        }
    },
    "is_potentially_hazardous_asteroid": false,
    "close_approach_data": [
        {
            "close_approach_date": "2001-11-08",
            "close_approach_date_full": "2001-Nov-08 08:57",
            "epoch_date_close_approach": 1005209820000,
            "relative_velocity": {
                "kilometers_per_second": "8.1091551125",
                "kilometers_per_hour": "29192.9584048631",
                "miles_per_hour": "18139.3690710662"
            },
            "miss_distance": {
                "astronomical": "0.1945461859",
                "lunar": "75.6784663151",
                "kilometers": "29103695.027264033",
                "miles": "18084197.5145603354"
            },
            "orbiting_body": "Earth"
        }
    ],
    "orbital_data": {
        "orbit_id": "8",
        "orbit_determination_date": "2017-04-06 09:15:55",
        "first_observation_date": "2001-10-26",
        "last_observation_date": "2001-10-29",
        "data_arc_in_days": 3,
        "observations_used": 15,
        "orbit_uncertainty": "9",
        "minimum_orbit_intersection": ".191272",
        "jupiter_tisserand_invariant": "4.801",
        "epoch_osculation": "2452210.5",
        "eccentricity": ".1804001909982839",
        "semi_major_axis": "1.358013490846902",
        "inclination": "15.35668553310702",
        "ascending_node_longitude": "33.25955942613878",
        "orbital_period": "578.0355559101846",
        "perihelion_distance": "1.113027597719875",
        "perihelion_argument": "60.67551823489638",
        "aphelion_distance": "1.60299938397393",
        "perihelion_time": "2452277.495907620606",
        "mean_anomaly": "318.2750118105785",
        "mean_motion": ".6227990584993303",
        "equinox": "J2000",
        "orbit_class": {
            "orbit_class_type": "AMO",
            "orbit_class_description": "Near-Earth asteroid orbits similar to that of 1221 Amor",
            "orbit_class_range": "1.017 AU < q (perihelion) < 1.3 AU"
        }
    },
    "is_sentry_object": false
}